CORAL                   
1 67684U 98067YA  26086.42856195  .00080155  00000+0  10695-2 0  9994
2 67684  51.6313 342.8639 0012536 239.6168 120.3585 15.57296527  7559
GXIBA-1                 
1 67685U 98067YB  26086.86923230  .00042726  00000+0  65407-3 0  9992
2 67685  51.6320 341.3060 0011869 248.5163 111.4562 15.53847851  7613
UITMSAT-2               
1 67686U 98067YC  26086.40526712  .00051452  00000+0  76170-3 0  9992
2 67686  51.6320 343.4609 0008937 217.8888 142.1474 15.54719469  7540
HMU-SAT2                
1 67687U 98067YD  26086.87400335  .00042578  00000+0  65871-3 0  9991
2 67687  51.6326 341.3407 0008519 222.9651 137.0675 15.53597244  7530
LEOPARD                 
1 67688U 98067YE  26086.09006899  .00052925  00000+0  79602-3 0  9997
2 67688  51.6328 345.1054 0008650 217.3181 142.7210 15.54275853  7410
CREW DRAGON 12          
1 67796U 26031A   26086.84204458  .00011920  00000+0  22728-3 0  9990
2 67796  51.6344 342.6225 0006212 240.1567 119.8804 15.48591753559086
PROGRESS-MS 33          
1 68319U 26058A   26086.84204458  .00011920  00000+0  22728-3 0  9991
2 68319  51.6344 342.6225 0006212 240.1567 119.8804 15.48591753   337
